IRIDIUM 33 DEB          
1 35477U 97051PX  17345.46310352  .00001748  00000-0  55581-3 0  9999
2 35477  86.3719 247.9712 0095271 297.2451  61.9064 14.36833248445436
